CCSDS_OMM_VERS = 2.0
CREATION_DATE  = 
ORIGINATOR     = 

OBJECT_NAME    = DELTA 1 R/B
OBJECT_ID      = 1989-089B
CENTER_NAME    = EARTH
REF_FRAME      = TEME
TIME_SYSTEM    = UTC
MEAN_ELEMENT_THEORY = SGP/SGP4

EPOCH          = 2025-10-31T05:11:18.466080
MEAN_MOTION    = 14.50518573
ECCENTRICITY   = .00693776
INCLINATION    = 97.0799
RA_OF_ASC_NODE = 167.1847
ARG_OF_PERICENTER = 170.5075
MEAN_ANOMALY   = 189.7453

EPHEMERIS_TYPE = 0
CLASSIFICATION_TYPE = U
NORAD_CAT_ID   = 20323
ELEMENT_SET_NO = 999
REV_AT_EPOCH   = 87696
BSTAR          = .11952022E-3
MEAN_MOTION_DOT = .447E-5
MEAN_MOTION_DDOT = 0

CCSDS_OMM_VERS = 2.0
CREATION_DATE  = 
ORIGINATOR     = 

OBJECT_NAME    = ARIANE 40 R/B
OBJECT_ID      = 1990-005H
CENTER_NAME    = EARTH
REF_FRAME      = TEME
TIME_SYSTEM    = UTC
MEAN_ELEMENT_THEORY = SGP/SGP4

EPOCH          = 2025-10-31T03:19:12.614880
MEAN_MOTION    = 14.39748138
ECCENTRICITY   = .00092614
INCLINATION    = 98.3302
RA_OF_ASC_NODE = 3.5084
ARG_OF_PERICENTER = 230.0505
MEAN_ANOMALY   = 129.9870

EPHEMERIS_TYPE = 0
CLASSIFICATION_TYPE = U
NORAD_CAT_ID   = 20443
ELEMENT_SET_NO = 999
REV_AT_EPOCH   = 87416
BSTAR          = .14383397E-3
MEAN_MOTION_DOT = .408E-5
MEAN_MOTION_DDOT = 0

CCSDS_OMM_VERS = 2.0
CREATION_DATE  = 
ORIGINATOR     = 

OBJECT_NAME    = DELTA 2 R/B(1)
OBJECT_ID      = 1990-008B
CENTER_NAME    = EARTH
REF_FRAME      = TEME
TIME_SYSTEM    = UTC
MEAN_ELEMENT_THEORY = SGP/SGP4

EPOCH          = 2025-10-31T05:55:57.903744
MEAN_MOTION    = 15.41360453
ECCENTRICITY   = .01183748
INCLINATION    = 35.6069
RA_OF_ASC_NODE = 294.1149
ARG_OF_PERICENTER = 152.2396
MEAN_ANOMALY   = 208.4717

EPHEMERIS_TYPE = 0
CLASSIFICATION_TYPE = U
NORAD_CAT_ID   = 20453
ELEMENT_SET_NO = 999
REV_AT_EPOCH   = 90606
BSTAR          = .7714371E-3
MEAN_MOTION_DOT = .42976E-3
MEAN_MOTION_DDOT = 0

CCSDS_OMM_VERS = 2.0
CREATION_DATE  = 
ORIGINATOR     = 

OBJECT_NAME    = COSMOS 2058
OBJECT_ID      = 1990-010A
CENTER_NAME    = EARTH
REF_FRAME      = TEME
TIME_SYSTEM    = UTC
MEAN_ELEMENT_THEORY = SGP/SGP4

EPOCH          = 2025-10-31T05:17:43.767744
MEAN_MOTION    = 15.09999249
ECCENTRICITY   = .00115122
INCLINATION    = 82.4697
RA_OF_ASC_NODE = 174.8520
ARG_OF_PERICENTER = 58.9672
MEAN_ANOMALY   = 301.2686

EPHEMERIS_TYPE = 0
CLASSIFICATION_TYPE = U
NORAD_CAT_ID   = 20465
ELEMENT_SET_NO = 999
REV_AT_EPOCH   = 92269
BSTAR          = .28054246E-3
MEAN_MOTION_DOT = .4591E-4
MEAN_MOTION_DDOT = 0

CCSDS_OMM_VERS = 2.0
CREATION_DATE  = 
ORIGINATOR     = 

OBJECT_NAME    = SL-14 R/B
OBJECT_ID      = 1990-010B
CENTER_NAME    = EARTH
REF_FRAME      = TEME
TIME_SYSTEM    = UTC
MEAN_ELEMENT_THEORY = SGP/SGP4

EPOCH          = 2025-10-31T07:37:48.498816
MEAN_MOTION    = 14.83412302
ECCENTRICITY   = .00200455
INCLINATION    = 82.5053
RA_OF_ASC_NODE = 28.8797
ARG_OF_PERICENTER = 10.6727
MEAN_ANOMALY   = 349.4909

EPHEMERIS_TYPE = 0
CLASSIFICATION_TYPE = U
NORAD_CAT_ID   = 20466
ELEMENT_SET_NO = 999
REV_AT_EPOCH   = 90930
BSTAR          = .74673627E-4
MEAN_MOTION_DOT = .638E-5
MEAN_MOTION_DDOT = 0

CCSDS_OMM_VERS = 2.0
CREATION_DATE  = 
ORIGINATOR     = 

OBJECT_NAME    = SL-14 R/B
OBJECT_ID      = 1990-018B
CENTER_NAME    = EARTH
REF_FRAME      = TEME
TIME_SYSTEM    = UTC
MEAN_ELEMENT_THEORY = SGP/SGP4

EPOCH          = 2025-10-31T03:27:02.410560
MEAN_MOTION    = 14.81986945
ECCENTRICITY   = .00171061
INCLINATION    = 82.5222
RA_OF_ASC_NODE = 344.1812
ARG_OF_PERICENTER = 153.7873
MEAN_ANOMALY   = 206.4211

EPHEMERIS_TYPE = 0
CLASSIFICATION_TYPE = U
NORAD_CAT_ID   = 20511
ELEMENT_SET_NO = 999
REV_AT_EPOCH   = 90339
BSTAR          = .67255886E-4
MEAN_MOTION_DOT = .558E-5
MEAN_MOTION_DDOT = 0

CCSDS_OMM_VERS = 2.0
CREATION_DATE  = 
ORIGINATOR     = 

OBJECT_NAME    = HST
OBJECT_ID      = 1990-037B
CENTER_NAME    = EARTH
REF_FRAME      = TEME
TIME_SYSTEM    = UTC
MEAN_ELEMENT_THEORY = SGP/SGP4

EPOCH          = 2025-10-31T00:02:02.562720
MEAN_MOTION    = 15.27238201
ECCENTRICITY   = .00020317
INCLINATION    = 28.4669
RA_OF_ASC_NODE = 203.2120
ARG_OF_PERICENTER = 113.4940
MEAN_ANOMALY   = 246.5868

EPHEMERIS_TYPE = 0
CLASSIFICATION_TYPE = U
NORAD_CAT_ID   = 20580
ELEMENT_SET_NO = 999
REV_AT_EPOCH   = 75345
BSTAR          = .3577555E-3
MEAN_MOTION_DOT = .10055E-3
MEAN_MOTION_DDOT = 0

CCSDS_OMM_VERS = 2.0
CREATION_DATE  = 
ORIGINATOR     = 

OBJECT_NAME    = SL-16 R/B
OBJECT_ID      = 1990-046B
CENTER_NAME    = EARTH
REF_FRAME      = TEME
TIME_SYSTEM    = UTC
MEAN_ELEMENT_THEORY = SGP/SGP4

EPOCH          = 2025-10-31T04:31:56.825760
MEAN_MOTION    = 14.14992285
ECCENTRICITY   = .00127731
INCLINATION    = 70.9999
RA_OF_ASC_NODE = 209.8798
ARG_OF_PERICENTER = 149.5230
MEAN_ANOMALY   = 210.6638

EPHEMERIS_TYPE = 0
CLASSIFICATION_TYPE = U
NORAD_CAT_ID   = 20625
ELEMENT_SET_NO = 999
REV_AT_EPOCH   = 83007
BSTAR          = .40459824E-4
MEAN_MOTION_DOT = .31E-6
MEAN_MOTION_DDOT = 0

CCSDS_OMM_VERS = 2.0
CREATION_DATE  = 
ORIGINATOR     = 

OBJECT_NAME    = COSMOS 2084
OBJECT_ID      = 1990-055A
CENTER_NAME    = EARTH
REF_FRAME      = TEME
TIME_SYSTEM    = UTC
MEAN_ELEMENT_THEORY = SGP/SGP4

EPOCH          = 2025-10-31T05:43:55.856352
MEAN_MOTION    = 15.04626371
ECCENTRICITY   = .00388462
INCLINATION    = 62.7910
RA_OF_ASC_NODE = 56.7661
ARG_OF_PERICENTER = 169.6769
MEAN_ANOMALY   = 190.5138

EPHEMERIS_TYPE = 0
CLASSIFICATION_TYPE = U
NORAD_CAT_ID   = 20663
ELEMENT_SET_NO = 999
REV_AT_EPOCH   = 91683
BSTAR          = .37186887E-3
MEAN_MOTION_DOT = .5134E-4
MEAN_MOTION_DDOT = 0

CCSDS_OMM_VERS = 2.0
CREATION_DATE  = 
ORIGINATOR     = 

OBJECT_NAME    = SL-6 R/B(2)
OBJECT_ID      = 1990-055D
CENTER_NAME    = EARTH
REF_FRAME      = TEME
TIME_SYSTEM    = UTC
MEAN_ELEMENT_THEORY = SGP/SGP4

EPOCH          = 2025-10-31T07:37:57.847296
MEAN_MOTION    = 15.02760633
ECCENTRICITY   = .00106879
INCLINATION    = 62.7845
RA_OF_ASC_NODE = 333.5245
ARG_OF_PERICENTER = 270.3574
MEAN_ANOMALY   = 89.6301

EPHEMERIS_TYPE = 0
CLASSIFICATION_TYPE = U
NORAD_CAT_ID   = 20666
ELEMENT_SET_NO = 999
REV_AT_EPOCH   = 91874
BSTAR          = .23537223E-3
MEAN_MOTION_DOT = .297E-4
MEAN_MOTION_DDOT = 0

CCSDS_OMM_VERS = 2.0
CREATION_DATE  = 
ORIGINATOR     = 

OBJECT_NAME    = SL-8 R/B
OBJECT_ID      = 1990-078B
CENTER_NAME    = EARTH
REF_FRAME      = TEME
TIME_SYSTEM    = UTC
MEAN_ELEMENT_THEORY = SGP/SGP4

EPOCH          = 2025-10-31T03:20:57.316992
MEAN_MOTION    = 14.83777797
ECCENTRICITY   = .03833063
INCLINATION    = 82.9089
RA_OF_ASC_NODE = 7.3582
ARG_OF_PERICENTER = 88.2012
MEAN_ANOMALY   = 276.3055

EPHEMERIS_TYPE = 0
CLASSIFICATION_TYPE = U
NORAD_CAT_ID   = 20775
ELEMENT_SET_NO = 999
REV_AT_EPOCH   = 79005
BSTAR          = .6171213E-3
MEAN_MOTION_DOT = .19959E-3
MEAN_MOTION_DDOT = 0

CCSDS_OMM_VERS = 2.0
CREATION_DATE  = 
ORIGINATOR     = 

OBJECT_NAME    = SL-8 R/B
OBJECT_ID      = 1991-006B
CENTER_NAME    = EARTH
REF_FRAME      = TEME
TIME_SYSTEM    = UTC
MEAN_ELEMENT_THEORY = SGP/SGP4

EPOCH          = 2025-10-31T06:26:32.458272
MEAN_MOTION    = 13.77480377
ECCENTRICITY   = .00235137
INCLINATION    = 82.9397
RA_OF_ASC_NODE = 266.3075
ARG_OF_PERICENTER = 40.5207
MEAN_ANOMALY   = 71.6647

EPHEMERIS_TYPE = 0
CLASSIFICATION_TYPE = U
NORAD_CAT_ID   = 21088
ELEMENT_SET_NO = 999
REV_AT_EPOCH   = 74625
BSTAR          = .1615816E-3
MEAN_MOTION_DOT = .176E-5
MEAN_MOTION_DDOT = 0

