DELTA 1 R/B             
1 20323U 89089B   25304.21618595  .00000447  00000+0  11952-3 0  9990
2 20323  97.0799 167.1847 0069377 170.5075 189.7453 14.50518573876966
ARIANE 40 R/B           
1 20443U 90005H   25304.13834045  .00000408  00000+0  14383-3 0  9992
2 20443  98.3302   3.5084 0009261 230.0505 129.9870 14.39748138874163
DELTA 2 R/B(1)          
1 20453U 90008B   25304.24719796  .00042976  00000+0  77144-3 0  9993
2 20453  35.6069 294.1149 0118374 152.2396 208.4717 15.41360453906069
COSMOS 2058             
1 20465U 90010A   25304.22064546  .00004591  00000+0  28054-3 0  9990
2 20465  82.4697 174.8520 0011512  58.9672 301.2686 15.09999249922690
SL-14 R/B               
1 20466U 90010B   25304.31792244  .00000638  00000+0  74674-4 0  9992
2 20466  82.5053  28.8797 0020045  10.6727 349.4909 14.83412302909305
SL-14 R/B               
1 20511U 90018B   25304.14377790  .00000558  00000+0  67256-4 0  9996
2 20511  82.5222 344.1812 0017106 153.7873 206.4211 14.81986945903399
HST                     
1 20580U 90037B   25304.00141855  .00010055  00000+0  35776-3 0  9993
2 20580  28.4669 203.2120 0002031 113.4940 246.5868 15.27238201753454
SL-16 R/B               
1 20625U 90046B   25304.18885215  .00000031  00000+0  40460-4 0  9997
2 20625  70.9999 209.8798 0012773 149.5230 210.6638 14.14992285830076
COSMOS 2084             
1 20663U 90055A   25304.23884093  .00005134  00000+0  37187-3 0  9998
2 20663  62.7910  56.7661 0038846 169.6769 190.5138 15.04626371916837
SL-6 R/B(2)             
1 20666U 90055D   25304.31803064  .00002970  00000+0  23537-3 0  9998
2 20666  62.7845 333.5245 0010687 270.3574  89.6301 15.02760633918748
SL-8 R/B                
1 20775U 90078B   25304.13955228  .00019959  00000+0  61712-3 0  9996
2 20775  82.9089   7.3582 0383306  88.2012 276.3055 14.83777797790057
SL-8 R/B                
1 21088U 91006B   25304.26843123  .00000176  00000+0  16158-3 0  9995
2 21088  82.9397 266.3075 0023513  40.5207  71.6647 13.77480377746252
